STARLINK-32909          
1 62894U 25024R   25125.72460024  .00009859  00000+0  36719-3 0  9991
2 62894  43.0015 264.8509 0001216 259.3401 100.7314 15.27592123 15168
STARLINK-32901          
1 62895U 25024S   25126.08865469  .00006028  00000+0  22850-3 0  9990
2 62895  43.0040 262.4164 0000748 271.6063  88.4703 15.27564616 15146
STARLINK-32890          
1 62896U 25024T   25126.05910348  .00000698  00000+0  34908-4 0  9990
2 62896  43.0035 262.2009 0003358 256.5670 103.4808 15.27569238 15197
STARLINK-32893          
1 62897U 25024U   25126.07068455 -.00001104  00000+0 -30625-4 0  9993
2 62897  42.9977 262.2838 0000197 203.5266 156.5577 15.27568641 15180
STARLINK-32902          
1 62898U 25024V   25126.06682358  .00000481  00000+0  26985-4 0  9996
2 62898  42.9979 262.2470 0000781 284.0402  76.0363 15.27570298 15191
STARLINK-32661          
1 62899U 25024W   25126.09251922  .00005948  00000+0  22551-3 0  9996
2 62899  42.9990 262.4427 0000821 240.4984 119.5785 15.27574532 15146
STARLINK-11552 [DTC]    
1 62907U 25027A   25126.15549040  .00003897  00000+0  33853-4 0  9996
2 62907  43.0065  41.5075 0002347 289.5323  70.5291 15.70843234 14819
STARLINK-11561 [DTC]    
1 62908U 25027B   25126.12896967 -.00001602  00000+0 -90054-5 0  9998
2 62908  43.0012  41.2884 0001270 259.0494 101.0231 15.70821960 14717
STARLINK-11567 [DTC]    
1 62909U 25027C   25126.10784935 -.00000909  00000+0 -35918-5 0  9995
2 62909  43.0016  42.0153 0001680 272.7383  87.3293 15.70828462 14756
STARLINK-11569 [DTC]    
1 62910U 25027D   25125.18582579  .00003831  00000+0  33365-4 0  9992
2 62910  42.9998  47.1234 0001823 295.4565  64.6114 15.70821232 14617
STARLINK-11537 [DTC]    
1 62911U 25027E   25125.76869557 -.00000407  00000+0  32993-6 0  9996
2 62911  43.0034  43.7575 0002040 274.1793  85.8841 15.70827671 14761
STARLINK-11565 [DTC]    
1 62912U 25027F   25125.16458588  .00001315  00000+0  13749-4 0  9993
2 62912  43.0022  46.9503 0001562 267.6177  92.4512 15.70829195 14566
STARLINK-11564 [DTC]    
1 62913U 25027G   25125.14347921  .00001375  00000+0  14215-4 0  9995
2 62913  43.0020  47.6793 0001872 290.6234  69.4433 15.70828354 14605
STARLINK-11566 [DTC]    
1 62914U 25027H   25126.10254052  .00000151  00000+0  46753-5 0  9999
2 62914  42.9996  41.9692 0001619 254.2704 105.7985 15.70825673 14807
