[
  {
    "OBJECT_NAME": "STARLINK-32909",
    "OBJECT_ID": "2025-024R",
    "EPOCH": "2025-05-05T17:23:25.460736",
    "MEAN_MOTION": 15.27592123,
    "ECCENTRICITY": 0.0001216,
    "INCLINATION": 43.0015,
    "RA_OF_ASC_NODE": 264.8509,
    "ARG_OF_PERICENTER": 259.3401,
    "MEAN_ANOMALY": 100.7314,
    "EPHEMERIS_TYPE": 0,
    "CLASSIFICATION_TYPE": "U",
    "NORAD_CAT_ID": 62894,
    "ELEMENT_SET_NO": 999,
    "REV_AT_EPOCH": 1516,
    "BSTAR": 0.00036719,
    "MEAN_MOTION_DOT": 9.859e-05,
    "MEAN_MOTION_DDOT": 0
  },
  {
    "OBJECT_NAME": "STARLINK-32901",
    "OBJECT_ID": "2025-024S",
    "EPOCH": "2025-05-06T02:07:39.765216",
    "MEAN_MOTION": 15.27564616,
    "ECCENTRICITY": 7.48e-05,
    "INCLINATION": 43.004,
    "RA_OF_ASC_NODE": 262.4164,
    "ARG_OF_PERICENTER": 271.6063,
    "MEAN_ANOMALY": 88.4703,
    "EPHEMERIS_TYPE": 0,
    "CLASSIFICATION_TYPE": "U",
    "NORAD_CAT_ID": 62895,
    "ELEMENT_SET_NO": 999,
    "REV_AT_EPOCH": 1514,
    "BSTAR": 0.0002285,
    "MEAN_MOTION_DOT": 6.028e-05,
    "MEAN_MOTION_DDOT": 0
  },
  {
    "OBJECT_NAME": "STARLINK-32890",
    "OBJECT_ID": "2025-024T",
    "EPOCH": "2025-05-06T01:25:06.540672",
    "MEAN_MOTION": 15.27569238,
    "ECCENTRICITY": 0.0003358,
    "INCLINATION": 43.0035,
    "RA_OF_ASC_NODE": 262.2009,
    "ARG_OF_PERICENTER": 256.567,
    "MEAN_ANOMALY": 103.4808,
    "EPHEMERIS_TYPE": 0,
    "CLASSIFICATION_TYPE": "U",
    "NORAD_CAT_ID": 62896,
    "ELEMENT_SET_NO": 999,
    "REV_AT_EPOCH": 1519,
    "BSTAR": 3.4908e-05,
    "MEAN_MOTION_DOT": 6.98e-06,
    "MEAN_MOTION_DDOT": 0
  },
  {
    "OBJECT_NAME": "STARLINK-32893",
    "OBJECT_ID": "2025-024U",
    "EPOCH": "2025-05-06T01:41:47.145120",
    "MEAN_MOTION": 15.27568641,
    "ECCENTRICITY": 1.97e-05,
    "INCLINATION": 42.9977,
    "RA_OF_ASC_NODE": 262.2838,
    "ARG_OF_PERICENTER": 203.5266,
    "MEAN_ANOMALY": 156.5577,
    "EPHEMERIS_TYPE": 0,
    "CLASSIFICATION_TYPE": "U",
    "NORAD_CAT_ID": 62897,
    "ELEMENT_SET_NO": 999,
    "REV_AT_EPOCH": 1518,
    "BSTAR": -3.0625e-05,
    "MEAN_MOTION_DOT": -1.104e-05,
    "MEAN_MOTION_DDOT": 0
  },
  {
    "OBJECT_NAME": "STARLINK-32902",
    "OBJECT_ID": "2025-024V",
    "EPOCH": "2025-05-06T01:36:13.557312",
    "MEAN_MOTION": 15.27570298,
    "ECCENTRICITY": 7.81e-05,
    "INCLINATION": 42.9979,
    "RA_OF_ASC_NODE": 262.247,
    "ARG_OF_PERICENTER": 284.0402,
    "MEAN_ANOMALY": 76.0363,
    "EPHEMERIS_TYPE": 0,
    "CLASSIFICATION_TYPE": "U",
    "NORAD_CAT_ID": 62898,
    "ELEMENT_SET_NO": 999,
    "REV_AT_EPOCH": 1519,
    "BSTAR": 2.6985e-05,
    "MEAN_MOTION_DOT": 4.81e-06,
    "MEAN_MOTION_DDOT": 0
  },
  {
    "OBJECT_NAME": "STARLINK-32661",
    "OBJECT_ID": "2025-024W",
    "EPOCH": "2025-05-06T02:13:13.660608",
    "MEAN_MOTION": 15.27574532,
    "ECCENTRICITY": 8.21e-05,
    "INCLINATION": 42.999,
    "RA_OF_ASC_NODE": 262.4427,
    "ARG_OF_PERICENTER": 240.4984,
    "MEAN_ANOMALY": 119.5785,
    "EPHEMERIS_TYPE": 0,
    "CLASSIFICATION_TYPE": "U",
    "NORAD_CAT_ID": 62899,
    "ELEMENT_SET_NO": 999,
    "REV_AT_EPOCH": 1514,
    "BSTAR": 0.00022551,
    "MEAN_MOTION_DOT": 5.948e-05,
    "MEAN_MOTION_DDOT": 0
  },
  {
    "OBJECT_NAME": "STARLINK-11552 [DTC]",
    "OBJECT_ID": "2025-027A",
    "EPOCH": "2025-05-06T03:43:54.370560",
    "MEAN_MOTION": 15.70843234,
    "ECCENTRICITY": 0.0002347,
    "INCLINATION": 43.0065,
    "RA_OF_ASC_NODE": 41.5075,
    "ARG_OF_PERICENTER": 289.5323,
    "MEAN_ANOMALY": 70.5291,
    "EPHEMERIS_TYPE": 0,
    "CLASSIFICATION_TYPE": "U",
    "NORAD_CAT_ID": 62907,
    "ELEMENT_SET_NO": 999,
    "REV_AT_EPOCH": 1481,
    "BSTAR": 3.3853e-05,
    "MEAN_MOTION_DOT": 3.897e-05,
    "MEAN_MOTION_DDOT": 0
  },
  {
    "OBJECT_NAME": "STARLINK-11561 [DTC]",
    "OBJECT_ID": "2025-027B",
    "EPOCH": "2025-05-06T03:05:42.979488",
    "MEAN_MOTION": 15.7082196,
    "ECCENTRICITY": 0.000127,
    "INCLINATION": 43.0012,
    "RA_OF_ASC_NODE": 41.2884,
    "ARG_OF_PERICENTER": 259.0494,
    "MEAN_ANOMALY": 101.0231,
    "EPHEMERIS_TYPE": 0,
    "CLASSIFICATION_TYPE": "U",
    "NORAD_CAT_ID": 62908,
    "ELEMENT_SET_NO": 999,
    "REV_AT_EPOCH": 1471,
    "BSTAR": -9.0054e-06,
    "MEAN_MOTION_DOT": -1.602e-05,
    "MEAN_MOTION_DDOT": 0
  },
  {
    "OBJECT_NAME": "STARLINK-11567 [DTC]",
    "OBJECT_ID": "2025-027C",
    "EPOCH": "2025-05-06T02:35:18.183840",
    "MEAN_MOTION": 15.70828462,
    "ECCENTRICITY": 0.000168,
    "INCLINATION": 43.0016,
    "RA_OF_ASC_NODE": 42.0153,
    "ARG_OF_PERICENTER": 272.7383,
    "MEAN_ANOMALY": 87.3293,
    "EPHEMERIS_TYPE": 0,
    "CLASSIFICATION_TYPE": "U",
    "NORAD_CAT_ID": 62909,
    "ELEMENT_SET_NO": 999,
    "REV_AT_EPOCH": 1475,
    "BSTAR": -3.5918e-06,
    "MEAN_MOTION_DOT": -9.09e-06,
    "MEAN_MOTION_DDOT": 0
  },
  {
    "OBJECT_NAME": "STARLINK-11569 [DTC]",
    "OBJECT_ID": "2025-027D",
    "EPOCH": "2025-05-05T04:27:35.348256",
    "MEAN_MOTION": 15.70821232,
    "ECCENTRICITY": 0.0001823,
    "INCLINATION": 42.9998,
    "RA_OF_ASC_NODE": 47.1234,
    "ARG_OF_PERICENTER": 295.4565,
    "MEAN_ANOMALY": 64.6114,
    "EPHEMERIS_TYPE": 0,
    "CLASSIFICATION_TYPE": "U",
    "NORAD_CAT_ID": 62910,
    "ELEMENT_SET_NO": 999,
    "REV_AT_EPOCH": 1461,
    "BSTAR": 3.3365e-05,
    "MEAN_MOTION_DOT": 3.831e-05,
    "MEAN_MOTION_DDOT": 0
  },
  {
    "OBJECT_NAME": "STARLINK-11537 [DTC]",
    "OBJECT_ID": "2025-027E",
    "EPOCH": "2025-05-05T18:26:55.297248",
    "MEAN_MOTION": 15.70827671,
    "ECCENTRICITY": 0.000204,
    "INCLINATION": 43.0034,
    "RA_OF_ASC_NODE": 43.7575,
    "ARG_OF_PERICENTER": 274.1793,
    "MEAN_ANOMALY": 85.8841,
    "EPHEMERIS_TYPE": 0,
    "CLASSIFICATION_TYPE": "U",
    "NORAD_CAT_ID": 62911,
    "ELEMENT_SET_NO": 999,
    "REV_AT_EPOCH": 1476,
    "BSTAR": 3.2993e-07,
    "MEAN_MOTION_DOT": -4.07e-06,
    "MEAN_MOTION_DDOT": 0
  },
  {
    "OBJECT_NAME": "STARLINK-11565 [DTC]",
    "OBJECT_ID": "2025-027F",
    "EPOCH": "2025-05-05T03:57:00.220032",
    "MEAN_MOTION": 15.70829195,
    "ECCENTRICITY": 0.0001562,
    "INCLINATION": 43.0022,
    "RA_OF_ASC_NODE": 46.9503,
    "ARG_OF_PERICENTER": 267.6177,
    "MEAN_ANOMALY": 92.4512,
    "EPHEMERIS_TYPE": 0,
    "CLASSIFICATION_TYPE": "U",
    "NORAD_CAT_ID": 62912,
    "ELEMENT_SET_NO": 999,
    "REV_AT_EPOCH": 1456,
    "BSTAR": 1.3749e-05,
    "MEAN_MOTION_DOT": 1.315e-05,
    "MEAN_MOTION_DDOT": 0
  },
  {
    "OBJECT_NAME": "STARLINK-11564 [DTC]",
    "OBJECT_ID": "2025-027G",
    "EPOCH": "2025-05-05T03:26:36.603744",
    "MEAN_MOTION": 15.70828354,
    "ECCENTRICITY": 0.0001872,
    "INCLINATION": 43.002,
    "RA_OF_ASC_NODE": 47.6793,
    "ARG_OF_PERICENTER": 290.6234,
    "MEAN_ANOMALY": 69.4433,
    "EPHEMERIS_TYPE": 0,
    "CLASSIFICATION_TYPE": "U",
    "NORAD_CAT_ID": 62913,
    "ELEMENT_SET_NO": 999,
    "REV_AT_EPOCH": 1460,
    "BSTAR": 1.4215e-05,
    "MEAN_MOTION_DOT": 1.375e-05,
    "MEAN_MOTION_DDOT": 0
  },
  {
    "OBJECT_NAME": "STARLINK-11566 [DTC]",
    "OBJECT_ID": "2025-027H",
    "EPOCH": "2025-05-06T02:27:39.500928",
    "MEAN_MOTION": 15.70825673,
    "ECCENTRICITY": 0.0001619,
    "INCLINATION": 42.9996,
    "RA_OF_ASC_NODE": 41.9692,
    "ARG_OF_PERICENTER": 254.2704,
    "MEAN_ANOMALY": 105.7985,
    "EPHEMERIS_TYPE": 0,
    "CLASSIFICATION_TYPE": "U",
    "NORAD_CAT_ID": 62914,
    "ELEMENT_SET_NO": 999,
    "REV_AT_EPOCH": 1480,
    "BSTAR": 4.6753e-06,
    "MEAN_MOTION_DOT": 1.51e-06,
    "MEAN_MOTION_DDOT": 0
  }
]